ONEWEB-0020             
1 45133U 20008C   25311.83851750 -.00000217  00000+0 -65870-3 0  9995
2 45133  87.8791  80.3838 0001474  91.8707 268.2589 13.10371966279359
ONEWEB-0021             
1 45134U 20008D   25311.62439017 -.00000586  00000+0 -17158-2 0  9995
2 45134  87.8787  80.4585 0001554 102.3345 257.7956 13.10375010279636
ONEWEB-0023             
1 45136U 20008F   25311.78789343 -.00000291  00000+0 -86898-3 0  9995
2 45136  87.8787  80.4078 0001318  95.2255 264.9023 13.10375858279087
ONEWEB-0024             
1 45137U 20008G   25311.83686319 -.00000203  00000+0 -61918-3 0  9990
2 45137  87.8807  80.3605 0001627  99.6615 260.4696 13.10370540279256
ONEWEB-0025             
1 45138U 20008H   25311.62520417 -.00000547  00000+0 -16046-2 0  9996
2 45138  87.8798  80.4097 0001336 109.6679 250.4592 13.10373458279559
ONEWEB-0026             
1 45139U 20008J   25311.82161612 -.00000438  00000+0 -12723-2 0  9994
2 45139  87.8861  65.1455 0001736  96.6880 263.4445 13.11419001282092
ONEWEB-0028             
1 45140U 20008K   25311.54950875  .00000467  00000+0  12816-2 0  9995
2 45140  87.8852  65.2168 0001293 125.0937 235.0313 13.11416764279575
ONEWEB-0032             
1 45141U 20008L   25311.79370515  .00000029  00000+0  47576-4 0  9997
2 45141  87.8790  80.4073 0001409 102.2072 257.9213 13.10377117279307
